C/2020 A2 (NEOWISE),e,120.6393,286.3068,68.0995,1444,0.0000180,0.99932504,0.0000,01/08.5333/2020,2000,g 13.5,4.0
# From MPEC 2023-A50
C/2020 A3 (ATLAS),h,06/29.1787/2019,146.6715,120.8040,268.3794,1.000927,5.760860,2000,8.0,4.0
# From MPEC 2022-P91
P/2020 A4 (PANSTARRS-Lemmon),e,24.9906,312.3811,144.7688,8.193991,0.0420205,0.65395733,51.9412,04/12.0/2023,2000,g 15.0,4.0
# From MPEC 2020-N08
A/2020 B1,e,18.5188,309.9571,154.7239,51.40127,0.0026745,0.96612553,3.2166,04/12.0/2023,2000,g 21.0,2.0
# From MPEC 2022-N37
C/2020 B3 (Rankin),e,20.7097,185.8477,324.9174,951.1987,0.0000336,0.99649181,0.0000,10/19.4322/2019,2000,g 13.0,4.0
# From MPEC 2022-H04
P/2020 B4 (Sheppard),e,11.6093,185.9791,342.0884,7.966844,0.0438303,0.19180771,22.2862,04/12.0/2023,2000,g 10.5,4.0
# From MPEC 2023-G31
C/2020 F2 (ATLAS),h,07/14.9805/2022,163.5880,250.2879,48.3313,1.005397,8.816727,2000,4.5,4.0
# From MPEC 2021-O56
C/2020 F3 (NEOWISE),e,129.1065,61.0730,37.3599,357.1532,0.0001460,0.99917206,0.0000,07/03.7139/2020,2000,g  7.5,5.2
# From MPEC 2023-C45
C/2020 F5 (MASTER),e,52.2091,350.5025,310.6800,178.9944,0.0004116,0.97584145,0.0000,03/17.6509/2021,2000,g  6.5,3.2
# From MPEC 2020-L06
C/2020 F6 (PANSTARRS),e,174.5830,207.9080,344.5570,402.7352,0.0001219,0.99129473,0.0000,04/11.7163/2020,2000,g 14.5,2.8
# From MPEC 2023-D72
C/2020 F7 (Lemmon),e,93.9508,321.8714,227.9503,587.7154,0.0000692,0.99092745,0.0000,11/13.7524/2021,2000,g  7.0,4.0
# From MPEC 2020-KB7
C/2020 F8 (SWAN),e,110.6508,259.8747,68.1301,255.0375,0.0002420,0.99831572,0.0000,05/27.3588/2020,2000,g 10.0,4.0
# From MPEC 2020-L06
P/2020 G1 (Pimentel),e,18.5091,240.1249,207.5957,3.608383,0.1437922,0.86035591,161.1050,04/12.0/2023,2000,g 17.0,4.0
# From MPEC 2022-YB4
C/2020 H2 (Pruyne),e,124.9200,277.6643,26.6710,189.9599,0.0003765,0.99562285,0.0000,04/27.8220/2020,2000,g 14.0,3.2
# From MPEC 2020-HM1
C/2020 H3 (Wierzchos),p,06/05.7162/2020,62.5292,30.4456,2.300288,270.6227,2000,13.5,4.0
# From MPEC 2020-L06
C/2020 H4 (Leonard),e,84.4979,307.6541,117.5445,47.86298,0.0029765,0.98068146,0.0000,08/29.6391/2020,2000,g 15.0,3.2
# From MPEC 2023-G31
C/2020 H5 (Robinson),e,70.2546,210.6274,326.3437,3850,0.0000041,0.99757367,0.0000,12/10.8664/2020,2000,g  5.0,4.0
# From MPEC 2023-E68
C/2020 H6 (ATLAS),e,79.9777,213.7191,20.3075,11400,0.0000008,0.99958753,0.0000,09/30.7278/2021,2000,g  8.0,3.2
# From MPEC 2020-KB7
C/2020 H7 (Lemmon),e,135.9235,323.5194,82.6780,1405,0.0000187,0.99685380,0.0000,06/02.9510/2020,2000,g 11.0,4.0
# From MPEC 2021-N06
C/2020 H8 (PANSTARRS),e,99.6868,68.4254,128.9393,597.1779,0.0000675,0.99217153,0.0000,06/04.5084/2020,2000,g 10.5,4.0
# From MPEC 2022-ED3
A/2020 H9,e,137.8788,213.1803,312.8375,371.4701,0.0001377,0.99307021,0.0000,12/21.6189/2019,2000,g 18.0,2.0
# From MPEC 2023-E68
C/2020 J1 (SONEAR),h,04/18.6362/2021,142.3050,226.6033,341.7456,1.000758,3.353507,2000,8.5,3.2
# From MPEC 2023-G31
C/2020 K1 (PANSTARRS),e,89.6704,94.3552,213.9843,305619,0.0000000,0.99998994,0.0000,05/09.0814/2023,2000,g  5.5,4.0
# From MPEC 2021-N06
C/2020 K2 (PANSTARRS),h,08/06.3576/2020,91.0285,288.3921,67.3506,1.003898,8.879878,2000,10.8,4.0
# From MPEC 2020-KF9
C/2020 K3 (Leonard),p,06/01.0032/2020,129.0152,64.4924,1.583069,28.3546,2000,14.5,4.0
# From MPEC 2020-L06
C/2020 K4 (PANSTARRS),e,125.5826,264.1908,308.8609,23.96174,0.0084029,0.92680827,9.5294,04/12.0/2023,2000,g 16.5,4.0
# From MPEC 2021-R75
C/2020 K5 (PANSTARRS),h,06/05.4762/2021,67.1173,86.1626,249.6110,1.001386,1.536697,2000,11.0,4.0
# From MPEC 2023-E68
C/2020 K6 (Rankin),h,09/15.8337/2021,103.6497,291.5519,44.3363,1.003672,5.868858,2000,8.0,4.0
# From MPEC 2023-A50
C/2020 K7 (PANSTARRS),e,32.0417,286.0789,358.2564,98.77676,0.0010040,0.93527274,1.2668,04/12.0/2023,2000,g  8.0,4.0
# From MPEC 2021-P47
C/2020 K8 (Catalina-ATLAS),h,09/14.8266/2020,31.4265,181.5376,259.9597,1.000181,0.472060,2000,15.0,3.2
# From MPEC 2021-BE3
P/2020 K9 (Lemmon-PANSTARRS),e,23.2083,166.2435,197.0554,4.202740,0.1143945,0.32128624,90.2121,04/12.0/2023,2000,g 12.5,4.0
# From MPEC 2023-C45
P/2020 M1 (PANSTARRS),e,8.5390,142.6332,72.6444,5.317143,0.0803871,0.47384895,96.6918,04/12.0/2023,2000,g 14.5,4.0
# From MPEC 2022-H30
C/2020 M3 (ATLAS),e,23.4767,71.1629,328.5549,27.09226,0.0069893,0.95318137,6.2773,04/12.0/2023,2000,g 14.5,4.0
# From MPEC 2023-B57
A/2020 M4,h,11/24.1890/2020,160.1256,348.6228,104.6380,1.001031,5.950991,2000,14.5,2.0
# From MPC xxxxx
P/2020 MK4 (PANSTARRS),e,6.7998,0.7154,103.9890,6.203821,0.0637845,0.01175715,255.9402,04/12.0/2023,2000,g  8.0,4.0
# From MPEC 2023-FK0
C/2020 M5 (ATLAS),h,08/19.8590/2021,93.2198,352.0905,126.3065,1.000402,3.002942,2000,9.0,4.0
# From MPEC 2022-GA9
C/2020 N1 (PANSTARRS),h,03/12.3387/2021,29.7242,279.9294,186.7596,1.000464,1.318642,2000,12.5,4.0
# From MPEC 2021-P47
C/2020 N2 (ATLAS),e,161.0339,257.1563,331.3138,104.5124,0.0009225,0.98284556,0.0000,08/24.0694/2020,2000,g 16.0,3.2
# From MPEC 2023-F99
P/2020 O1 (Lemmon-PANSTARRS),e,5.2255,175.9748,104.4825,2.645733,0.2290262,0.11885822,246.2653,04/12.0/2023,2000,g 15.5,4.0
# From MPEC 2022-Y15
C/2020 O2 (Amaral),h,08/28.5358/2021,71.7601,256.7718,10.3055,1.001644,4.862429,2000,8.0,3.2
# From MPEC 2023-C45
P/2020 O3 (PANSTARRS),e,8.4441,266.8186,81.6513,4.647872,0.0983610,0.10315623,78.8537,04/12.0/2023,2000,g 12.0,4.0
# From MPEC 2021-BE3
C/2020 P1 (NEOWISE),h,10/20.4204/2020,45.1709,53.4868,8.8900,1.000314,0.341019,2000,14.0,3.2
# From MPEC 2023-G31
C/2020 P3 (ATLAS),h,04/21.3318/2021,61.8893,19.4656,82.2741,1.001386,6.812530,2000,6.0,4.0
# From MPEC 2022-PB4
C/2020 PV6 (PANSTARRS),e,128.2277,329.1488,71.3859,42.06734,0.0036123,0.94544209,2.0334,04/12.0/2023,2000,g 10.0,4.0
# From MPEC 2022-L66
C/2020 Q1 (Borisov),e,142.9414,52.3901,9.9549,60.89159,0.0020743,0.97835860,0.0000,08/14.4280/2020,2000,g 14.0,4.0
# From MPEC 2023-CD7
C/2020 Q2 (PANSTARRS),e,3.3362,179.8286,118.2661,10.65006,0.0283580,0.49228032,33.1216,04/12.0/2023,2000,g 12.0,3.2
# From MPEC 2022-X67
C/2020 R2 (PANSTARRS),e,53.2281,195.0932,211.7912,409.3164,0.0001190,0.98853513,0.0000,02/24.8857/2022,2000,g  9.0,4.0
# From MPEC 2022-K19
C/2020 R4 (ATLAS),e,164.4524,323.2726,46.6899,99.82279,0.0009882,0.98971123,0.0000,03/02.1586/2021,2000,g 13.5,4.0
# From MPEC 2023-C45
P/2020 R5 (PANSTARRS),e,11.4453,272.9696,82.6149,4.987344,0.0884912,0.31450637,92.6976,04/12.0/2023,2000,g  9.5,6.0
# From MPEC 2021-Y10
C/2020 R6 (Rankin),e,82.8123,12.1783,271.9922,316.6459,0.0001749,0.99010282,0.0000,09/08.5753/2019,2000,g 11.0,4.0
# From MPEC 2023-G31
C/2020 R7 (ATLAS),h,09/16.2526/2022,114.8957,268.2836,347.8415,1.000236,2.955991,2000,7.0,3.2
# From MPEC 2021-BE3
P/2020 S1 (PANSTARRS),e,13.7284,129.4624,255.0248,5.992861,0.0671820,0.50773589,54.7172,04/12.0/2023,2000,g 14.0,4.0
# From MPEC 2022-ST7
C/2020 S2 (PANSTARRS),e,22.4044,197.6625,202.3431,10.22198,0.0301579,0.82812391,25.3570,04/12.0/2023,2000,g 17.0,4.0
# From MPEC 2022-C56
C/2020 S3 (Erasmus),e,20.0171,222.5986,350.0949,152.9181,0.0005212,0.99740955,0.0000,12/12.0718/2020,2000,g 13.5,3.2
# From MPEC 2023-G31
C/2020 S4 (PANSTARRS),h,02/09.2391/2023,20.5692,117.7209,20.9918,1.001282,3.369730,2000,8.5,3.2
# From MPEC 2021-BE3
P/2020 S5 (PANSTARRS),e,12.3475,315.9996,53.2207,4.054284,0.1207349,0.33848109,117.8254,04/12.0/2023,2000,g 14.5,4.0
# From MPEC 2021-BE3
P/2020 S7 (PANSTARRS),e,16.0873,328.0288,40.5847,5.030625,0.0873517,0.41067855,76.3676,04/12.0/2023,2000,g 14.5,4.0
# From MPEC 2021-P47
C/2020 S8 (Lemmon),e,108.5275,24.0680,160.2778,263.6830,0.0002302,0.99104390,0.0000,04/10.8296/2021,2000,g 12.5,4.0
# From MPEC 2022-ST7
C/2020 T2 (Palomar),e,27.8552,82.9708,150.5182,307.5922,0.0001827,0.99331145,0.0000,07/11.0302/2021,2000,g 11.0,3.2
# From MPEC 2021-N06
P/2020 T3 (PANSTARRS),e,7.2989,73.9891,357.0397,3.516986,0.1494335,0.59208910,121.2228,04/12.0/2023,2000,g 18.0,3.2
# From MPEC 2021-N06
C/2020 T4 (PANSTARRS),h,07/05.3326/2021,83.8394,50.6149,79.6071,1.000246,2.191438,2000,13.0,3.2
# From MPEC 2021-BE3
C/2020 T5 (Lemmon),e,66.5603,237.8422,90.3351,751.2106,0.0000479,0.99748233,0.0000,10/09.3414/2020,2000,g 16.0,4.0
# From MPEC 2021-N06
P/2020 U2 (PANSTARRS),e,6.4196,342.8846,84.6466,3.778049,0.1342155,0.51111516,112.3325,04/12.0/2023,2000,g 18.0,4.0
# From MPEC 2021-W31
C/2020 U3 (Rankin),e,30.1578,282.6427,124.3416,66.50539,0.0018173,0.96576034,1.4444,04/12.0/2023,2000,g 15.0,4.0
# From MPEC 2023-CD7
C/2020 U4 (PANSTARRS),h,04/09.4430/2022,167.0248,120.2841,69.9710,1.002010,5.357429,2000,7.0,4.0
# From MPEC 2022-YB4
C/2020 U5 (PANSTARRS),e,97.2730,107.3272,75.4334,3817,0.0000042,0.99901596,0.0000,04/27.9618/2022,2000,g  8.0,4.0
# From MPEC 2023-G31
C/2020 V2 (ZTF),h,05/08.5668/2023,131.6113,212.3717,162.4307,1.001052,2.227841,2000,4.9,4.0
# From MPEC 2023-D72
P/2020 V3 (PANSTARRS),e,23.0330,198.2523,249.3611,8.385036,0.0405926,0.25690800,32.1410,04/12.0/2023,2000,g  8.3,4.0
# From MPEC 2023-FK0
P/2020 V4 (Rankin),e,14.2442,203.4830,257.0325,9.367947,0.0343746,0.45041782,21.7511,04/12.0/2023,2000,g  9.0,4.0
# From MPEC 2021-BE3
P/2020 W1 (Rankin),e,10.7871,124.2720,265.1459,7.214451,0.0508627,0.26632674,55.8713,04/12.0/2023,2000,g 10.0,4.0
# From MPEC 2021-BE3
C/2020 W5 (Lemmon),h,11/30.1085/2020,88.5960,75.4703,24.4994,1.000786,3.365293,2000,15.0,4.0
# From MPEC 2023-G31
P/2020 WJ5 (Lemmon),e,22.2935,177.8092,338.1789,6.015963,0.0667954,0.17134907,43.4209,04/12.0/2023,2000,g  8.5,4.0
# From MPEC 2021-P47
P/2020 X1 (ATLAS),e,31.6929,55.9913,323.4281,4.530769,0.1021989,0.36546941,101.7016,04/12.0/2023,2000,g 13.0,4.0
# From MPEC 2021-U31
C/2020 X2 (ATLAS),e,18.1850,105.4218,347.3724,16.45274,0.0147689,0.76738578,12.9511,04/12.0/2023,2000,g 10.6,4.0
# From MPEC 2021-S45
C/2020 X4 (Leonard),e,80.6070,161.8828,140.3064,40.71218,0.0037942,0.87173002,3.3276,04/12.0/2023,2000,g  9.0,4.0
# From MPEC 2023-D72
C/2020 Y2 (ATLAS),e,101.3001,26.5130,266.1409,1142,0.0000255,0.99725722,0.0000,06/17.8347/2022,2000,g  6.5,4.0
# From MPEC 2021-R75
